OBJECT_NAME,OBJECT_ID,EPOCH,MEAN_MOTION,ECCENTRICITY,INCLINATION,RA_OF_ASC_NODE,ARG_OF_PERICENTER,MEAN_ANOMALY,EPHEMERIS_TYPE,CLASSIFICATION_TYPE,NORAD_CAT_ID,ELEMENT_SET_NO,REV_AT_EPOCH,BSTAR,MEAN_MOTION_DOT,MEAN_MOTION_DDOT
STARLINK-37155,2026-057W,2026-07-14T19:52:44.550624,15.33431422,.0001267,97.2872,322.2009,96.4380,263.7007,0,U,68314,999,1814,.59378E-3,.19135E-3,0
STARLINK-37150,2026-057X,2026-07-14T08:23:39.363360,15.33436773,.00018304,97.2855,321.7753,104.3780,255.7666,0,U,68315,999,1807,.18833069E-3,.6008E-4,0
STARLINK-37154,2026-057Y,2026-07-14T08:08:01.241664,15.33463540,.00018713,97.2840,321.6352,81.8773,278.2682,0,U,68316,999,1806,.66157816E-3,.21357E-3,0
STARLINK-37139,2026-057Z,2026-07-14T07:36:40.467456,15.33433531,.00012954,97.2868,321.6708,84.7901,275.3489,0,U,68317,999,1806,.24278863E-3,.7768E-4,0
STARLINK-37113,2026-057AA,2026-07-14T08:11:54.619296,15.33439667,.00015025,97.2861,321.6384,86.6089,273.5326,0,U,68318,999,1806,.22105604E-3,.7067E-4,0
STARLINK-36987,2026-059A,2026-07-14T11:48:07.701984,15.30203143,.00016716,53.1586,118.9902,85.6203,274.4989,0,U,68321,999,1759,.22817448E-3,.6405E-4,0
STARLINK-37088,2026-059B,2026-07-14T04:50:26.294208,15.34391591,.00010063,53.1556,115.0462,67.7578,292.3532,0,U,68322,999,1762,.35374764E-3,.11591E-3,0
STARLINK-36983,2026-059C,2026-07-14T20:13:13.379808,15.34401815,.0001196,53.1580,111.9403,82.0125,278.1013,0,U,68323,999,1771,.4164E-3,.13719E-3,0
STARLINK-37164,2026-059D,2026-07-14T12:21:32.645088,15.30244508,.0000597,53.1603,119.1397,91.3405,268.7665,0,U,68324,999,1872,.69184E-3,.20215E-3,0
STARLINK-36309,2026-059E,2026-07-14T11:41:57.336288,15.34393176,.0000961,53.1582,113.9852,108.0723,252.0384,0,U,68325,999,1766,.37436E-3,.1229E-3,0
STARLINK-37206,2026-059F,2026-07-14T11:52:41.167488,15.30197394,.00014738,53.1578,119.0088,86.0730,274.0439,0,U,68326,999,1759,.31157649E-3,.8879E-4,0
STARLINK-37199,2026-059G,2026-07-14T05:09:07.507008,15.30195594,.00011642,53.1581,120.1270,96.5367,263.5766,0,U,68327,999,1755,.34513576E-3,.9875E-4,0
STARLINK-36245,2026-059H,2026-07-14T12:16:59.982240,15.30193369,.00012139,53.1594,119.1165,97.6292,262.4847,0,U,68328,999,1759,.27544432E-3,.7806E-4,0
STARLINK-37204,2026-059J,2026-07-14T12:06:04.019616,15.34391338,.00012895,53.1580,113.3813,99.6769,260.4379,0,U,68329,999,1767,.34979472E-3,.11457E-3,0
STARLINK-37001,2026-059K,2026-07-14T12:07:53.753664,15.30189650,.00010185,53.1570,119.1040,108.5850,251.5262,0,U,68330,999,1759,.24866502E-3,.701E-4,0
STARLINK-36932,2026-059L,2026-07-14T11:11:39.923520,15.34378116,.00010193,53.1573,113.8530,89.4619,270.6500,0,U,68331,999,1766,.46609257E-3,.15393E-3,0
STARLINK-37205,2026-059M,2026-07-14T20:00:01.999008,15.34406716,.0001337,53.1610,117.6907,98.7613,204.9766,0,U,68332,999,586,.20873E-3,.6684E-4,0
STARLINK-37180,2026-059N,2026-07-14T11:17:43.232928,15.34398559,.0001036,53.1572,113.8999,103.0623,257.0495,0,U,68333,999,1766,.48093878E-3,.15907E-3,0
STARLINK-37191,2026-059P,2026-07-12T19:54:17.851392,15.30363629,.00043036,53.1636,127.1089,35.9118,324.2172,0,U,68334,999,1733,.64307151E-3,.18834E-3,0
STARLINK-37217,2026-059Q,2026-07-14T12:02:20.207328,15.34389721,.000147,53.1604,111.9393,69.3266,290.7894,0,U,68335,999,1769,.36422E-3,.11945E-3,0
STARLINK-37143,2026-059R,2026-07-14T18:46:53.431104,15.30202686,.0001334,53.1599,117.9649,80.3339,279.7812,0,U,68336,999,1763,.5244E-3,.15205E-3,0
STARLINK-36237,2026-059S,2026-07-14T12:12:07.585632,15.34395439,.00014422,53.1590,113.3979,78.7472,281.3692,0,U,68337,999,1767,.50142371E-3,.166E-3,0
STARLINK-36254,2026-059T,2026-07-14T11:50:55.023360,15.34396388,.0000905,53.1571,113.3059,64.6002,295.5095,0,U,68338,999,1767,.56025829E-3,.18598E-3,0
STARLINK-37200,2026-059U,2026-07-14T11:34:27.177600,15.30197753,.00014104,53.1580,118.9288,90.4335,269.6827,0,U,68339,999,1759,.47341594E-3,.13687E-3,0
STARLINK-37185,2026-059V,2026-07-14T18:45:29.167776,15.34402956,.0001242,53.1585,112.2634,75.1145,284.9995,0,U,68340,999,1771,.37475E-3,.12307E-3,0
STARLINK-37181,2026-059W,2026-07-14T11:14:41.271936,15.34389448,.0001262,53.1580,113.8626,83.6677,276.4469,0,U,68341,999,1766,.35342E-3,.11579E-3,0
STARLINK-37192,2026-059X,2026-07-14T04:32:14.646624,15.34407003,.00012781,53.1582,114.9855,70.3815,289.7325,0,U,68342,999,1762,.81568731E-3,.2729E-3,0
STARLINK-37158,2026-059Y,2026-07-14T11:44:59.515008,15.34389916,.000136,53.1584,113.9996,62.9576,297.1565,0,U,68343,999,1766,.55259E-3,.18334E-3,0
STARLINK-36380,2026-059Z,2026-07-14T12:42:19.353024,15.29360151,.0001304,53.1596,119.9411,77.6490,282.4657,0,U,68344,999,1758,.41026E-3,.11502E-3,0
STARLINK-37214,2026-059AA,2026-07-14T11:47:53.093472,15.34404439,.00008815,53.1592,113.2953,96.7344,263.3759,0,U,68345,999,1767,.14570823E-3,.4551E-4,0
