[ {"name": "STARLINK-37155", "line1": "1 68314U 26057W   26195.82829341  .00019135  00000+0  59378-3 0  9995", "line2": "2 68314  97.2872 322.2009 0001267  96.4380 263.7007 15.33431422 18140"}, {"name": "STARLINK-37150", "line1": "1 68315U 26057X   26195.34976115  .00006008  00000+0  18833-3 0  9991", "line2": "2 68315  97.2855 321.7753 0001830 104.3780 255.7666 15.33436773 18079"}, {"name": "STARLINK-37154", "line1": "1 68316U 26057Y   26195.33890326  .00021357  00000+0  66158-3 0  9997", "line2": "2 68316  97.2840 321.6352 0001871  81.8773 278.2682 15.33463540 18063"}, {"name": "STARLINK-37139", "line1": "1 68317U 26057Z   26195.31713504  .00007768  00000+0  24279-3 0  9996", "line2": "2 68317  97.2868 321.6708 0001295  84.7901 275.3489 15.33433531 18064"}, {"name": "STARLINK-37113", "line1": "1 68318U 26057AA  26195.34160439  .00007067  00000+0  22106-3 0  9992", "line2": "2 68318  97.2861 321.6384 0001502  86.6089 273.5326 15.33439667 18063"}, {"name": "STARLINK-36987", "line1": "1 68321U 26059A   26195.49175581  .00006405  00000+0  22817-3 0  9992", "line2": "2 68321  53.1586 118.9902 0001671  85.6203 274.4989 15.30203143 17596"}, {"name": "STARLINK-37088", "line1": "1 68322U 26059B   26195.20169322  .00011591  00000+0  35375-3 0  9993", "line2": "2 68322  53.1556 115.0462 0001006  67.7578 292.3532 15.34391591 17627"}, {"name": "STARLINK-36983", "line1": "1 68323U 26059C   26195.84251597  .00013719  00000+0  41640-3 0  9996", "line2": "2 68323  53.1580 111.9403 0001196  82.0125 278.1013 15.34401815 17710"}, {"name": "STARLINK-37164", "line1": "1 68324U 26059D   26195.51496117  .00020215  00000+0  69184-3 0  9992", "line2": "2 68324  53.1603 119.1397 0000597  91.3405 268.7665 15.30244508 18727"}, {"name": "STARLINK-36309", "line1": "1 68325U 26059E   26195.48746917  .00012290  00000+0  37436-3 0  9994", "line2": "2 68325  53.1582 113.9852 0000961 108.0723 252.0384 15.34393176 17662"}, {"name": "STARLINK-37206", "line1": "1 68326U 26059F   26195.49492092  .00008879  00000+0  31158-3 0  9991", "line2": "2 68326  53.1578 119.0088 0001473  86.0730 274.0439 15.30197394 17595"}, {"name": "STARLINK-37199", "line1": "1 68327U 26059G   26195.21467022  .00009875  00000+0  34514-3 0  9993", "line2": "2 68327  53.1581 120.1270 0001164  96.5367 263.5766 15.30195594 17557"}, {"name": "STARLINK-36245", "line1": "1 68328U 26059H   26195.51180535  .00007806  00000+0  27544-3 0  9995", "line2": "2 68328  53.1594 119.1165 0001213  97.6292 262.4847 15.30193369 17597"}, {"name": "STARLINK-37204", "line1": "1 68329U 26059J   26195.50421319  .00011457  00000+0  34979-3 0  9990", "line2": "2 68329  53.1580 113.3813 0001289  99.6769 260.4379 15.34391338 17670"}, {"name": "STARLINK-37001", "line1": "1 68330U 26059K   26195.50548326  .00007010  00000+0  24867-3 0  9995", "line2": "2 68330  53.1570 119.1040 0001018 108.5850 251.5262 15.30189650 17599"}, {"name": "STARLINK-36932", "line1": "1 68331U 26059L   26195.46643430  .00015393  00000+0  46609-3 0  9994", "line2": "2 68331  53.1573 113.8530 0001019  89.4619 270.6500 15.34378116 17665"}, {"name": "STARLINK-37205", "line1": "1 68332U 26059M   26195.83335647  .00006684  00000+0  20873-3 0  9992", "line2": "2 68332  53.1610 117.6907 0001337  98.7613 204.9766 15.34406716  5869"}, {"name": "STARLINK-37180", "line1": "1 68333U 26059N   26195.47063927  .00015907  00000+0  48094-3 0  9995", "line2": "2 68333  53.1572 113.8999 0001036 103.0623 257.0495 15.34398559 17667"}, {"name": "STARLINK-37191", "line1": "1 68334U 26059P   26193.82937328  .00018834  00000+0  64307-3 0  9995", "line2": "2 68334  53.1636 127.1089 0004303  35.9118 324.2172 15.30363629 17338"}, {"name": "STARLINK-37217", "line1": "1 68335U 26059Q   26195.50162277  .00011945  00000+0  36422-3 0  9999", "line2": "2 68335  53.1604 111.9393 0001470  69.3266 290.7894 15.34389721 17692"}, {"name": "STARLINK-37143", "line1": "1 68336U 26059R   26195.78256286  .00015205  00000+0  52440-3 0  9995", "line2": "2 68336  53.1599 117.9649 0001334  80.3339 279.7812 15.30202686 17630"}, {"name": "STARLINK-36237", "line1": "1 68337U 26059S   26195.50842113  .00016600  00000+0  50142-3 0  9993", "line2": "2 68337  53.1590 113.3979 0001442  78.7472 281.3692 15.34395439 17679"}, {"name": "STARLINK-36254", "line1": "1 68338U 26059T   26195.49369240  .00018598  00000+0  56026-3 0  9992", "line2": "2 68338  53.1571 113.3059 0000905  64.6002 295.5095 15.34396388 17672"}, {"name": "STARLINK-37200", "line1": "1 68339U 26059U   26195.48225900  .00013687  00000+0  47342-3 0  9991", "line2": "2 68339  53.1580 118.9288 0001410  90.4335 269.6827 15.30197753 17593"}, {"name": "STARLINK-37185", "line1": "1 68340U 26059V   26195.78158759  .00012307  00000+0  37475-3 0  9997", "line2": "2 68340  53.1585 112.2634 0001242  75.1145 284.9995 15.34402956 17712"}, {"name": "STARLINK-37181", "line1": "1 68341U 26059W   26195.46853324  .00011579  00000+0  35342-3 0  9994", "line2": "2 68341  53.1580 113.8626 0001262  83.6677 276.4469 15.34389448 17668"}, {"name": "STARLINK-37192", "line1": "1 68342U 26059X   26195.18905841  .00027290  00000+0  81569-3 0  9995", "line2": "2 68342  53.1582 114.9855 0001278  70.3815 289.7325 15.34407003 17623"}, {"name": "STARLINK-37158", "line1": "1 68343U 26059Y   26195.48957772  .00018334  00000+0  55259-3 0  9995", "line2": "2 68343  53.1584 113.9996 0001360  62.9576 297.1565 15.34389916 17669"}, {"name": "STARLINK-36380", "line1": "1 68344U 26059Z   26195.52939066  .00011502  00000+0  41026-3 0  9994", "line2": "2 68344  53.1596 119.9411 0001304  77.6490 282.4657 15.29360151 17581"}, {"name": "STARLINK-37214", "line1": "1 68345U 26059AA  26195.49158673  .00004551  00000+0  14571-3 0  9999", "line2": "2 68345  53.1592 113.2953 0000881  96.7344 263.3759 15.34404439 17670"}]